STARLINK-4027           
1 52601U 22052D   26068.86556738 -.00000404  00000+0 -72963-5 0  9996
2 52601  53.2159 278.3341 0001299  91.3033 268.8108 15.08836121211685
LEMUR-2-TILLINFINITY    
1 63356U 25061F   26068.90312914  .00005472  00000+0  30454-3 0  9994
2 63356  97.5532  45.5587 0016891 226.7020 133.2804 15.13945199 52616
